start=new Date('2022-11-18T00:00:00.000Z').valueOf();
sats=[{"MEAN_MOTION_DOT":"-0.00191905","COUNTRY_CODE":"US","SEMIMAJOR_AXIS":"6794.840","TIME_SYSTEM":"UTC","DECAY_DATE":null,"LAUNCH_DATE":"2022-10-05","CENTER_NAME":"EARTH","PERIAPSIS":"415.994","RCS_SIZE":"LARGE","MEAN_ELEMENT_THEORY":"SGP4","RA_OF_ASC_NODE":"239.8179","MEAN_MOTION_DDOT":"0.0000000000000","INCLINATION":"53.2173","MEAN_ANOMALY":"345.8687","ECCENTRICITY":"0.00010460","CLASSIFICATION_TYPE":"U","TLE_LINE1":"1 53992U 22125AE  22321.91667824 -.00191905  00000-0 -34417-2 0  9991","ELEMENT_SET_NO":"999","EPHEMERIS_TYPE":"0","EPOCH":"2022-11-17T22:00:00.999936","FILE":"3661914","GP_ID":"218099390","APOAPSIS":"417.416","OBJECT_TYPE":"PAYLOAD","REF_FRAME":"TEME","REV_AT_EPOCH":"130","TLE_LINE2":"2 53992  53.2173 239.8179 0001046  92.2354 345.8687 15.50007824  1303","MEAN_MOTION":"15.50007824","NORAD_CAT_ID":"53992","BSTAR":"-0.00344170000000","OBJECT_ID":"2022-125AE","ARG_OF_PERICENTER":"92.2354","OBJECT_NAME":"STARLINK-5108","SITE":"AFWTR","PERIOD":"92.903"},{"REV_AT_EPOCH":"130","TLE_LINE2":"2 53993  53.2172 239.0176 0002324  16.2823  98.5560 15.73189205  1300","PERIOD":"91.534","SITE":"AFWTR","OBJECT_NAME":"STARLINK-5121","ARG_OF_PERICENTER":"16.2823","OBJECT_ID":"2022-125AF","BSTAR":"0.00017453000000","NORAD_CAT_ID":"53993","MEAN_MOTION":"15.73189205","INCLINATION":"53.2172","MEAN_MOTION_DDOT":"0.0000000000000","RA_OF_ASC_NODE":"239.0176","MEAN_ELEMENT_THEORY":"SGP4","RCS_SIZE":"LARGE","PERIAPSIS":"348.227","DECAY_DATE":null,"LAUNCH_DATE":"2022-10-05","CENTER_NAME":"EARTH","TIME_SYSTEM":"UTC","COUNTRY_CODE":"US","SEMIMAJOR_AXIS":"6727.926","MEAN_MOTION_DOT":"0.00023933","REF_FRAME":"TEME","OBJECT_TYPE":"PAYLOAD","GP_ID":"218098575","APOAPSIS":"351.355","FILE":"3661914","EPOCH":"2022-11-17T22:00:00.999936","EPHEMERIS_TYPE":"0","ELEMENT_SET_NO":"999","TLE_LINE1":"1 53993U 22125AF  22321.91667824  .00023933  00000-0  17453-3 0  9997","CLASSIFICATION_TYPE":"U","MEAN_ANOMALY":"98.5560","ECCENTRICITY":"0.00023240"},{"TLE_LINE1":"1 53994U 22125AG  22321.91667824 -.00222410  00000-0 -40024-2 0  9990","ELEMENT_SET_NO":"999","CLASSIFICATION_TYPE":"U","EPHEMERIS_TYPE":"0","MEAN_ANOMALY":"347.1297","ECCENTRICITY":"0.00011840","REF_FRAME":"TEME","APOAPSIS":"417.447","GP_ID":"218098742","OBJECT_TYPE":"PAYLOAD","FILE":"3661914","EPOCH":"2022-11-17T22:00:00.999936","RCS_SIZE":"LARGE","PERIAPSIS":"415.838","DECAY_DATE":null,"LAUNCH_DATE":"2022-10-05","TIME_SYSTEM":"UTC","CENTER_NAME":"EARTH","MEAN_MOTION_DOT":"-0.00222410","COUNTRY_CODE":"US","SEMIMAJOR_AXIS":"6794.778","MEAN_MOTION_DDOT":"0.0000000000000","INCLINATION":"53.2173","RA_OF_ASC_NODE":"239.8100","MEAN_ELEMENT_THEORY":"SGP4","BSTAR":"-0.00400240000000","NORAD_CAT_ID":"53994","MEAN_MOTION":"15.50029167","PERIOD":"92.901","OBJECT_NAME":"STARLINK-5125","SITE":"AFWTR","OBJECT_ID":"2022-125AG","ARG_OF_PERICENTER":"94.7943","REV_AT_EPOCH":"130","TLE_LINE2":"2 53994  53.2173 239.8100 0001184  94.7943 347.1297 15.50029167  1309"},{"ECCENTRICITY":"0.00010460","MEAN_ANOMALY":"345.2830","EPHEMERIS_TYPE":"0","ELEMENT_SET_NO":"999","TLE_LINE1":"1 53995U 22125AH  22321.91667824 -.00203294  00000-0 -36506-2 0  9990","CLASSIFICATION_TYPE":"U","EPOCH":"2022-11-17T22:00:00.999936","FILE":"3661914","OBJECT_TYPE":"PAYLOAD","GP_ID":"218099232","APOAPSIS":"417.391","REF_FRAME":"TEME","SEMIMAJOR_AXIS":"6794.815","COUNTRY_CODE":"US","MEAN_MOTION_DOT":"-0.00203294","LAUNCH_DATE":"2022-10-05","DECAY_DATE":null,"TIME_SYSTEM":"UTC","CENTER_NAME":"EARTH","PERIAPSIS":"415.970","RCS_SIZE":"LARGE","MEAN_ELEMENT_THEORY":"SGP4","RA_OF_ASC_NODE":"239.8150","INCLINATION":"53.2173","MEAN_MOTION_DDOT":"0.0000000000000","MEAN_MOTION":"15.50016323","NORAD_CAT_ID":"53995","BSTAR":"-0.00365060000000","ARG_OF_PERICENTER":"94.0932","OBJECT_ID":"2022-125AH","SITE":"AFWTR","OBJECT_NAME":"STARLINK-5097","PERIOD":"92.902","TLE_LINE2":"2 53995  53.2173 239.8150 0001046  94.0932 345.2830 15.50016323  1305","REV_AT_EPOCH":"130"},{"INCLINATION":"53.2174","MEAN_MOTION_DDOT":"0.0000000000000","MEAN_ELEMENT_THEORY":"SGP4","RA_OF_ASC_NODE":"239.8075","PERIAPSIS":"415.594","RCS_SIZE":"LARGE","SEMIMAJOR_AXIS":"6794.778","COUNTRY_CODE":"US","MEAN_MOTION_DOT":"-0.00221156","DECAY_DATE":null,"CENTER_NAME":"EARTH","LAUNCH_DATE":"2022-10-05","TIME_SYSTEM":"UTC","OBJECT_TYPE":"PAYLOAD","GP_ID":"218099066","APOAPSIS":"417.692","REF_FRAME":"TEME","EPOCH":"2022-11-17T22:00:00.999936","FILE":"3661914","MEAN_ANOMALY":"25.8560","ECCENTRICITY":"0.00015440","EPHEMERIS_TYPE":"0","TLE_LINE1":"1 53996U 22125AJ  22321.91667824 -.00221156  00000-0 -39790-2 0  9996","CLASSIFICATION_TYPE":"U","ELEMENT_SET_NO":"999","TLE_LINE2":"2 53996  53.2174 239.8075 0001544  57.3445  25.8560 15.50029072  1303","REV_AT_EPOCH":"130","PERIOD":"92.901","ARG_OF_PERICENTER":"57.3445","OBJECT_ID":"2022-125AJ","SITE":"AFWTR","OBJECT_NAME":"STARLINK-5131","BSTAR":"-0.00397900000000","MEAN_MOTION":"15.50029072","NORAD_CAT_ID":"53996"},{"DECAY_DATE":null,"CENTER_NAME":"EARTH","LAUNCH_DATE":"2022-10-05","TIME_SYSTEM":"UTC","MEAN_MOTION_DOT":"-0.00044420","COUNTRY_CODE":"US","SEMIMAJOR_AXIS":"6727.836","RCS_SIZE":"LARGE","PERIAPSIS":"347.964","RA_OF_ASC_NODE":"239.0161","MEAN_ELEMENT_THEORY":"SGP4","MEAN_MOTION_DDOT":"0.0000000000000","INCLINATION":"53.2166","TLE_LINE1":"1 53997U 22125AK  22321.91667824 -.00044420  00000-0 -31340-3 0  9998","CLASSIFICATION_TYPE":"U","ELEMENT_SET_NO":"999","EPHEMERIS_TYPE":"0","ECCENTRICITY":"0.00025830","MEAN_ANOMALY":"108.1087","FILE":"3661914","EPOCH":"2022-11-17T22:00:00.999936","REF_FRAME":"TEME","GP_ID":"218098234","APOAPSIS":"351.439","OBJECT_TYPE":"PAYLOAD","TLE_LINE2":"2 53997  53.2166 239.0161 0002583   9.7044 108.1087 15.73220627  1306","REV_AT_EPOCH":"130","NORAD_CAT_ID":"53997","MEAN_MOTION":"15.73220627","BSTAR":"-0.00031340000000","OBJECT_NAME":"STARLINK-5130","SITE":"AFWTR","OBJECT_ID":"2022-125AK","ARG_OF_PERICENTER":"9.7044","PERIOD":"91.532"},{"MEAN_MOTION_DDOT":"0.0000000000000","INCLINATION":"53.2172","RA_OF_ASC_NODE":"239.8024","MEAN_ELEMENT_THEORY":"SGP4","RCS_SIZE":"LARGE","PERIAPSIS":"415.727","TIME_SYSTEM":"UTC","DECAY_DATE":null,"LAUNCH_DATE":"2022-10-05","CENTER_NAME":"EARTH","MEAN_MOTION_DOT":"-0.00198636","SEMIMAJOR_AXIS":"6794.817","COUNTRY_CODE":"US","REF_FRAME":"TEME","APOAPSIS":"417.638","GP_ID":"218098400","OBJECT_TYPE":"PAYLOAD","FILE":"3661914","EPOCH":"2022-11-17T22:00:00.999936","TLE_LINE1":"1 53998U 22125AL  22321.91667824 -.00198636  00000-0 -35646-2 0  9990","ELEMENT_SET_NO":"999","CLASSIFICATION_TYPE":"U","EPHEMERIS_TYPE":"0","MEAN_ANOMALY":"333.0581","ECCENTRICITY":"0.00014060","TLE_LINE2":"2 53998  53.2172 239.8024 0001406 112.7017 333.0581 15.50015650  1309","REV_AT_EPOCH":"130","PERIOD":"92.902","OBJECT_NAME":"STARLINK-5128","SITE":"AFWTR","OBJECT_ID":"2022-125AL","ARG_OF_PERICENTER":"112.7017","BSTAR":"-0.00356460000000","NORAD_CAT_ID":"53998","MEAN_MOTION":"15.50015650"},{"EPOCH":"2022-11-17T22:00:00.999936","FILE":"3661914","OBJECT_TYPE":"PAYLOAD","GP_ID":"218098909","APOAPSIS":"417.487","REF_FRAME":"TEME","ECCENTRICITY":"0.00013130","MEAN_ANOMALY":"319.4904","EPHEMERIS_TYPE":"0","TLE_LINE1":"1 53999U 22125AM  22321.91667824 -.00247402  00000-0 -44645-2 0  9996","CLASSIFICATION_TYPE":"U","ELEMENT_SET_NO":"999","MEAN_ELEMENT_THEORY":"SGP4","RA_OF_ASC_NODE":"239.8127","INCLINATION":"53.2174","MEAN_MOTION_DDOT":"0.0000000000000","COUNTRY_CODE":"US","SEMIMAJOR_AXIS":"6794.730","MEAN_MOTION_DOT":"-0.00247402","TIME_SYSTEM":"UTC","DECAY_DATE":null,"LAUNCH_DATE":"2022-10-05","CENTER_NAME":"EARTH","PERIAPSIS":"415.703","RCS_SIZE":"LARGE","ARG_OF_PERICENTER":"121.1487","OBJECT_ID":"2022-125AM","SITE":"AFWTR","OBJECT_NAME":"STARLINK-5079","PERIOD":"92.901","MEAN_MOTION":"15.50045436","NORAD_CAT_ID":"53999","BSTAR":"-0.00446450000000","REV_AT_EPOCH":"130","TLE_LINE2":"2 53999  53.2174 239.8127 0001313 121.1487 319.4904 15.50045436  1300"},{"OBJECT_TYPE":"PAYLOAD","APOAPSIS":"351.189","GP_ID":"218099391","REF_FRAME":"TEME","EPOCH":"2022-11-17T22:00:00.999936","FILE":"3661914","MEAN_ANOMALY":"89.2848","ECCENTRICITY":"0.00022880","EPHEMERIS_TYPE":"0","TLE_LINE1":"1 54000U 22125AN  22321.91667824 -.00013888  00000-0 -94512-4 0  9999","ELEMENT_SET_NO":"999","CLASSIFICATION_TYPE":"U","INCLINATION":"53.2157","MEAN_MOTION_DDOT":"0.0000000000000","MEAN_ELEMENT_THEORY":"SGP4","RA_OF_ASC_NODE":"239.0243","PERIAPSIS":"348.110","RCS_SIZE":"LARGE","COUNTRY_CODE":"US","SEMIMAJOR_AXIS":"6727.785","MEAN_MOTION_DOT":"-0.00013888","DECAY_DATE":null,"TIME_SYSTEM":"UTC","LAUNCH_DATE":"2022-10-05","CENTER_NAME":"EARTH","PERIOD":"91.531","ARG_OF_PERICENTER":"32.0228","OBJECT_ID":"2022-125AN","SITE":"AFWTR","OBJECT_NAME":"STARLINK-5088","BSTAR":"-0.00009451200000","MEAN_MOTION":"15.73238733","NORAD_CAT_ID":"54000","TLE_LINE2":"2 54000  53.2157 239.0243 0002288  32.0228  89.2848 15.73238733  1309","REV_AT_EPOCH":"130"},{"NORAD_CAT_ID":"54001","MEAN_MOTION":"15.50067244","BSTAR":"-0.00497210000000","SITE":"AFWTR","OBJECT_NAME":"STARLINK-5105","ARG_OF_PERICENTER":"123.2353","OBJECT_ID":"2022-125AP","PERIOD":"92.899","TLE_LINE2":"2 54001  53.2173 239.7995 0001346 123.2353 323.7753 15.50067244  1308","REV_AT_EPOCH":"130","EPHEMERIS_TYPE":"0","ELEMENT_SET_NO":"999","TLE_LINE1":"1 54001U 22125AP  22321.91667824 -.00274746  00000-0 -49721-2 0  9992","CLASSIFICATION_TYPE":"U","ECCENTRICITY":"0.00013460","MEAN_ANOMALY":"323.7753","FILE":"3661914","EPOCH":"2022-11-17T22:00:00.999936","REF_FRAME":"TEME","OBJECT_TYPE":"PAYLOAD","APOAPSIS":"417.446","GP_ID":"218098576","LAUNCH_DATE":"2022-10-05","DECAY_DATE":null,"TIME_SYSTEM":"UTC","CENTER_NAME":"EARTH","COUNTRY_CODE":"US","SEMIMAJOR_AXIS":"6794.667","MEAN_MOTION_DOT":"-0.00274746","RCS_SIZE":"LARGE","PERIAPSIS":"415.617","RA_OF_ASC_NODE":"239.7995","MEAN_ELEMENT_THEORY":"SGP4","INCLINATION":"53.2173","MEAN_MOTION_DDOT":"0.0000000000000"}];
